{ "type": "FeatureCollection", "features": [{"type":"Feature","geometry":{"type":"MultiPolygon","coordinates":[[[[-73.95568242464864,40.72394407889463],[-73.95615123675702,40.724240692246326],[-73.95757215033676,40.725097589012364],[-73.95763009168094,40.724757260404566],[-73.95771697820719,40.72428519400979],[-73.95814261872007,40.72440611887622],[-73.9580415872693,40.72442804016575],[-73.95794043102913,40.724647583878834],[-73.95794740065864,40.725037342009166],[-73.95827923638016,40.725169211088165],[-73.95835137550007,40.72519668477981],[-73.95842340508642,40.72539982286377],[-73.96012634831723,40.725318082465826],[-73.96028471625655,40.72594943138093],[-73.96106407408362,40.72584539678813],[-73.96161245468718,40.72586753897741],[-73.9616555562328,40.72620241371008],[-73.96161921196325,40.72666352077559],[-73.96149649279835,40.72675131202482],[-73.9614167694007,40.72735513182567],[-73.9611421312361,40.72810161324267],[-73.96104811217623,40.72846388930841],[-73.96101200013817,40.72851877221132],[-73.96099742036391,40.72877128484144],[-73.96106236131368,40.72877679633206],[-73.96106931756457,40.72922144916193],[-73.96114136618878,40.72941360641248],[-73.96119187879808,40.729413623447655],[-73.96122067606042,40.72952891289547],[-73.96135019970353,40.730160250257136],[-73.96129247036033,40.73016023086592],[-73.96128525419243,40.73016022843999],[-73.9612996323306,40.73025355496284],[-73.96142911046832,40.730967234815964],[-73.96169578689812,40.73153274339936],[-73.96175344181187,40.73166451080544],[-73.96203447212206,40.73237824007261],[-73.96226509253293,40.73291628778551],[-73.96230106305875,40.73311392189114],[-73.96234420687645,40.73338841144835],[-73.96230804355427,40.73353112684255],[-73.96235845695128,40.73371229711426],[-73.96232226244358,40.7339099075798],[-73.96228610189837,40.734047133449586],[-73.96218495438643,40.734250212080546],[-73.96209099165975,40.73450818806151],[-73.96198266690905,40.734639900538625],[-73.96191043761868,40.7347496668254],[-73.9617588057423,40.734892343770596],[-73.96157822413339,40.73517773805144],[-73.96118827551591,40.73560029934423],[-73.96051667797657,40.73634115445779],[-73.96050945463233,40.73635213099409],[-73.96046612428805,40.73640152168557],[-73.96042279714018,40.73644542285517],[-73.96029282516805,40.7365606577489],[-73.96023505751874,40.736615532879654],[-73.96022061067559,40.73663748591552],[-73.96021339052835,40.73664297292755],[-73.9601845033669,40.73667589998153],[-73.96014839601658,40.73671431403599],[-73.96009785157355,40.73675821258377],[-73.96007618776946,40.73678016310028],[-73.9600328535329,40.73683504313088],[-73.96000396619897,40.73686797013866],[-73.9599173106305,40.736955772107805],[-73.95989564670269,40.73697772258973],[-73.95985230888128,40.73703809205576],[-73.9598306449053,40.737060042525194],[-73.9598162044538,40.73707101649929],[-73.95980176399756,40.73708199047159],[-73.9597801066179,40.737092961921796],[-73.95972235135832,40.73712587877219],[-73.95970791087473,40.737136852732604],[-73.95969347038638,40.73714782669124],[-73.9596645893954,40.73716977460298],[-73.95959959711067,40.73723562589178],[-73.95958515325339,40.73725208934127],[-73.9595634924513,40.73726855025519],[-73.95946963219107,40.73733439132985],[-73.95940465293135,40.73737828448881],[-73.95936855144588,40.73740571928595],[-73.95930357205,40.73744961238741],[-73.959188046935,40.73753740359571],[-73.95916638257785,40.737559353938636],[-73.95910862997977,40.7375867809747],[-73.9590869723219,40.73759775229379],[-73.95902921290683,40.73763615829859],[-73.95898589414661,40.73766359040702],[-73.95888480899674,40.737740407439496],[-73.95883426294283,40.73778430542641],[-73.95882704255715,40.73778979235068],[-73.95881260517557,40.737795276693575],[-73.95877651001307,40.737811732295064],[-73.95876207262256,40.737817216631626],[-73.95873319443456,40.737833674803554],[-73.95867543801572,40.73786659112548],[-73.95863933255778,40.73789951519631],[-73.95861045089376,40.73792146284135],[-73.95848770360936,40.73801474025133],[-73.95845882184544,40.73803668785803],[-73.95842994006249,40.73805863545739],[-73.95837217986919,40.73809704113024],[-73.95831441960928,40.73813544677389],[-73.95824222177106,40.73817933665947],[-73.95815558630814,40.73822871075975],[-73.95796064998585,40.73834940887745],[-73.95789567221112,40.73838781167504],[-73.95785235596803,40.73840975385042],[-73.95776571643695,40.738464617159565],[-73.95771517954779,40.73849204613982],[-73.95763576385355,40.73853593299289],[-73.95754913097505,40.73857981713092],[-73.95741917793512,40.73865113271878],[-73.9571520645086,40.73877729225711],[-73.9570943100257,40.73880471827837],[-73.95695713894861,40.738876030653586],[-73.95694991829004,40.738881517459326],[-73.95692826340452,40.738886998867095],[-73.95692104629164,40.73888699616764],[-73.95690660851544,40.738892480270785],[-73.95677669335075,40.738903410594105],[-73.9556435113406,40.73904570683844],[-73.95563629421058,40.7390457040585],[-73.95562907708056,40.73904570127812],[-73.95561464282054,40.73904569571597],[-73.95558577795977,40.739040195083085],[-73.9555280445885,40.7390346832988],[-73.955196023441,40.73908396014905],[-73.95492175748811,40.73910581114028],[-73.95480627585724,40.7391167448895],[-73.95476296930411,40.7391222173914],[-73.95471244560503,40.73912768703915],[-73.95466192563303,40.73912766716163],[-73.95460418852224,40.73912764441737],[-73.95454645141149,40.73912762164412],[-73.9544382018366,40.739116599860154],[-73.95439489901074,40.73911658272053],[-73.95428664947885,40.73910556079409],[-73.95423612952378,40.7391055407298],[-73.95419282670517,40.7391055235142],[-73.95415674102301,40.73910550915543],[-73.95412065912086,40.73910000528227],[-73.95402684771827,40.739083499357854],[-73.95396911823094,40.739072497288994],[-73.95381757366117,40.739050478599346],[-73.95373818903771,40.739044957233325],[-73.95357941983026,40.73903391433712],[-73.95351446950238,40.73902839863411],[-73.953370138467,40.73901187177159],[-73.95323302462768,40.73899534765914],[-73.95292273094218,40.73893483668314],[-73.95286500176597,40.738923834060586],[-73.9527856290423,40.73890184352825],[-73.95272068280418,40.73889083787429],[-73.95265573658756,40.73887983218368],[-73.95255471265675,40.73885783258916],[-73.95238152949108,40.73881933457758],[-73.95218669128268,40.73878631682158],[-73.95217947418091,40.738786313825045],[-73.95214339261497,40.73878080933214],[-73.95210731500084,40.73876981532467],[-73.95203515190471,40.738758806282355],[-73.95202072166012,40.73875331076649],[-73.95200628746376,40.738753304752095],[-73.95198464012516,40.7387478062238],[-73.95197743489726,40.73873133470469],[-73.9519702217586,40.7387258421917],[-73.95195579944321,40.73870936766104],[-73.95194858630872,40.73870387514672],[-73.95194136921589,40.73870387213524],[-73.95193415608318,40.73869837961996],[-73.95192693899095,40.738698376607545],[-73.95191250876839,40.738692881078066],[-73.95190529167675,40.73869287806434],[-73.95189807458512,40.738692875050134],[-73.95188364040186,40.738692869020355],[-73.95187642331022,40.73869286600478],[-73.95187641934534,40.73869835550811],[-73.95187641538045,40.738703845011464],[-73.951883628509,40.73870933753032],[-73.95188362454472,40.73871482703362],[-73.9518764074507,40.73871482401806],[-73.95185476013533,40.738709325465315],[-73.95181146948555,40.73869283884442],[-73.95171766718424,40.738665352031376],[-73.95154449697918,40.73861038424988],[-73.95064254464283,40.73836297348809],[-73.95051266617828,40.738324491214],[-73.95046215906075,40.73830800098344],[-73.95039000491126,40.738286011902325],[-73.95021684499058,40.73822006311433],[-73.95005089833063,40.738159606699426],[-73.94996431865954,40.73812663208251],[-73.94964686474718,40.73800023509188],[-73.94948092331411,40.737934288349955],[-73.94939434421786,40.73790131330351],[-73.94925726291437,40.737846357927914],[-73.94884601614619,40.737686980323545],[-73.94861514467502,40.73759355594145],[-73.94858628525714,40.73758256404903],[-73.94840591623661,40.737511119805305],[-73.94812454441416,40.73739571377659],[-73.94811008058655,40.737434133803085],[-73.94808840405987,40.737467061070475],[-73.94754006215256,40.73728016938093],[-73.94720095739795,40.737164734777146],[-73.94717931097205,40.73715923534442],[-73.94716488147442,40.737153739218904],[-73.9471360224863,40.7371427469624],[-73.947092734022,40.737126258564054],[-73.94704945430404,40.7370987911407],[-73.94703502483021,40.737093294998864],[-73.94703502919387,40.737087805494454],[-73.94700617462176,40.73707132370089],[-73.94699174952467,40.73706033804922],[-73.94697010314995,40.73705483857711],[-73.94691238533319,40.73703285395897],[-73.94686188884164,40.73700538313761],[-73.9468402424955,40.73699988364102],[-73.94681859615292,40.73699438414037],[-73.9467753034785,40.73698338512686],[-73.94676087405229,40.73697788895056],[-73.94669593946797,40.73695590088708],[-73.94661657992103,40.736922927088074],[-73.94658047781832,40.736944868373286],[-73.94652275581953,40.73692837306401],[-73.94644348905094,40.73678011954988],[-73.9466603295593,40.736363017671934],[-73.9466747808105,40.73634106633662],[-73.94690606077356,40.73591299164255],[-73.94700003624,40.73571541266597],[-73.94720239285466,40.73535319811914],[-73.94718805511582,40.73523242237408],[-73.94715934496783,40.735034786920316],[-73.94708756598381,40.7345461877372],[-73.94706602944123,40.73440345062156],[-73.94659691790292,40.73444166059013],[-73.94662567009934,40.734584401137795],[-73.94673335369913,40.73529259753546],[-73.9466972129959,40.73536394441362],[-73.94655990139238,40.73560541911126],[-73.94655267582883,40.735616394773075],[-73.94654545026287,40.7356273704344],[-73.94653822469456,40.73563834609529],[-73.9465309903137,40.735660300766554],[-73.94650931799062,40.73568773823947],[-73.94648763242371,40.735731644224344],[-73.94646594682823,40.7357755502049],[-73.94644426561639,40.735813966675785],[-73.94642981440357,40.73583591798373],[-73.94640090311773,40.73589079960467],[-73.94630695216878,40.73605544105671],[-73.94624912915658,40.736165204225735],[-73.94616971311905,40.73620359368087],[-73.94587390815434,40.7360991543947],[-73.94525343385581,40.73589025981874],[-73.9451816046986,40.735478512583846],[-73.94503009385107,40.73542903479206],[-73.9450300757362,40.73545099281436],[-73.94502284087874,40.73547294739146],[-73.945008357558,40.73553332506068],[-73.94499389233786,40.73557174470577],[-73.94495775869007,40.73563211202447],[-73.94492161590145,40.73570345834202],[-73.94488548211676,40.73576382563693],[-73.94486379091263,40.73581322082085],[-73.94483487834678,40.73586810204874],[-73.94478427896743,40.73596688893165],[-73.94476983172478,40.73598335052574],[-73.94476259672378,40.7360053050849],[-73.94474093266547,40.73602176321344],[-73.94469037859771,40.73606565500247],[-73.94466871450194,40.73608211311724],[-73.94463259396733,40.73612601181458],[-73.94461092527436,40.736147959423356],[-73.94457480466599,40.736191858102174],[-73.94456757871184,40.73620283363849],[-73.94455312679642,40.73622478470978],[-73.94454590997248,40.736224781234846],[-73.94454590540381,40.73623027073978],[-73.94453868857927,40.736230267264375],[-73.94452425493019,40.736230260312226],[-73.94451703810564,40.73623025683547],[-73.94451703353461,40.73623574634043],[-73.94451702896356,40.736241235845334],[-73.94452424121883,40.73624672882706],[-73.94453867030222,40.73625222528412],[-73.94454588712914,40.736252228759554],[-73.94454588256046,40.73625771826449],[-73.9445458779918,40.73626320776936],[-73.94454587342312,40.736268697274284],[-73.94453865659442,40.736268693798856],[-73.94453865202516,40.736274183303784],[-73.944531430626,40.736279669332845],[-73.9445242137961,40.736279665856536],[-73.94451699239517,40.736285151884694],[-73.94449534190372,40.73628514145168],[-73.94448091281677,40.73627964498919],[-73.944466479157,40.73627963802979],[-73.94443040416397,40.736268641613584],[-73.94439432918281,40.736257645186065],[-73.94432218384337,40.7362301627921],[-73.94422118506354,40.73618619785948],[-73.94329774046027,40.73582343939331],[-73.943211167167,40.735790459688715],[-73.94316788523466,40.73576848030674],[-73.94310296238969,40.73573551120313],[-73.94300918662546,40.73568605926464],[-73.94294425923873,40.73565857957645],[-73.94287933190557,40.73563109985167],[-73.94284326223449,40.73561461343191],[-73.9423959846096,40.735427747302914],[-73.94212191547584,40.735235477106414],[-73.94210749635097,40.7352190013345],[-73.94197046482229,40.735120121219516],[-73.94177573373037,40.73498278522399],[-73.9417396790826,40.73494982993971],[-73.94179022945183,40.73491142894508],[-73.94178302715885,40.73489495677946],[-73.9417614059074,40.73486200879729],[-73.94169653747802,40.73476865433151],[-73.94161000964165,40.73468626786454],[-73.94154501638518,40.734735640467605],[-73.94129996419925,40.73437869776057],[-73.94114861388434,40.73415355065205],[-73.94099738611341,40.733791165672386],[-73.94115618921964,40.73374733085561],[-73.94113457834958,40.73370340373707],[-73.94104095262323,40.73348926497695],[-73.94093990177628,40.733511171232614],[-73.94093268524642,40.733511167531226],[-73.94091827652339,40.733483712592744],[-73.94081745479966,40.73324761191338],[-73.9407524770021,40.73328051555791],[-73.94072360121594,40.73329147971674],[-73.94064432722699,40.73317066967208],[-73.94059388029277,40.73309379052324],[-73.94057226021374,40.73306084230961],[-73.9406877630012,40.73301698578106],[-73.94036374377612,40.73220986045383],[-73.93988828415841,40.73129835445552],[-73.9398162551218,40.73115010003134],[-73.9397441668392,40.73106771966343],[-73.93891492537442,40.73038109381107],[-73.93856155978426,40.73013387777804],[-73.93810010263594,40.72972740673917],[-73.93808564999446,40.72974935701847],[-73.93729230013845,40.729298787682076],[-73.93711921797518,40.72918890303943],[-73.93693167830634,40.7291064577813],[-73.93683788523178,40.729089937832555],[-73.93655652719244,40.729018419487424],[-73.93608039999057,40.728880918343634],[-73.93563312820176,40.72875441038747],[-73.93561149076679,40.72874341926379],[-73.93527242879131,40.728649907441394],[-73.93501272762937,40.72857290797634],[-73.93492616249563,40.72854541152092],[-73.93481072273809,40.72852887768354],[-73.93425518358426,40.72843524010176],[-73.93423354106258,40.728429738229146],[-73.93423357356835,40.72839680116662],[-73.93422636301095,40.7283913075345],[-73.93415421410917,40.728380287272216],[-73.93376459517438,40.72833614770381],[-73.93352649557674,40.7283085629283],[-73.93349763719094,40.72830305675127],[-73.93348321621897,40.72829206939435],[-73.93348322717783,40.72828109037341],[-73.93325957080916,40.728242534360724],[-73.93301426131727,40.72820945483254],[-73.93291321583838,40.72823135406049],[-73.93262462748595,40.72818177993738],[-73.93240818789539,40.728143226492556],[-73.93238653448152,40.72814870329362],[-73.9323576539706,40.728165154872876],[-73.9323432053498,40.72818161492553],[-73.9321339650989,40.728159533736516],[-73.93200409480669,40.72814298857761],[-73.93196081593327,40.72812649447102],[-73.93188147419332,40.72809351047805],[-73.93175162658066,40.72805500699199],[-73.93168670564431,40.728033010438686],[-73.93166505220697,40.72803848710417],[-73.93157126757822,40.728016473352525],[-73.93121055019908,40.727939405225435],[-73.93080654954896,40.72785133093718],[-73.93071996996711,40.72784029984899],[-73.93032314055417,40.72779614429071],[-73.92991921699402,40.72763670324712],[-73.9298326551782,40.727609202958995],[-73.92965954334959,40.727543223165476],[-73.92965232167175,40.72754870826806],[-73.92963065663113,40.727565163572955],[-73.92962342915122,40.727576138184496],[-73.92963062185075,40.72759810063789],[-73.92960896258724,40.72760906642785],[-73.92958009322628,40.72761453829005],[-73.92950077650396,40.727559594611],[-73.92942145409847,40.72751014038783],[-73.92937818791034,40.72748266628735],[-73.92924117369259,40.727400239453736],[-73.92927007212062,40.72736732012155],[-73.9292412378093,40.72733985483315],[-73.92917635340308,40.727284919796254],[-73.92911148078275,40.72721900570023],[-73.92886637048646,40.72700476346237],[-73.92849156583833,40.72661477574116],[-73.92834024691655,40.72641705911881],[-73.92816008368814,40.726202855752476],[-73.92813125033813,40.72617539018173],[-73.92805198986301,40.72607103988719],[-73.92795835162103,40.72591727490044],[-73.92793674011759,40.725884324282426],[-73.92792953035114,40.72587883025415],[-73.92790067348001,40.725873322672555],[-73.927879032315,40.7258678196036],[-73.92787183443802,40.725851346547636],[-73.92786464250665,40.72582938397921],[-73.92785751000636,40.72575252628938],[-73.92780058738337,40.72501140593611],[-73.92926576381397,40.724628049205556],[-73.9308680411562,40.724222798153235],[-73.93244144265766,40.723812018336574],[-73.93401482476239,40.723401216996315],[-73.93558818746973,40.722990394132935],[-73.93528579140026,40.72232050339729],[-73.93504110731999,40.72166711293437],[-73.93650620518301,40.72124523728489],[-73.9362110229334,40.720575352800395],[-73.93588702335747,40.7198670248131],[-73.93560625687554,40.71922459427542],[-73.93528947986938,40.718521758031166],[-73.9361265984243,40.71832460275371],[-73.93694930826427,40.718099985891705],[-73.9370356947141,40.71830314544527],[-73.93707170174932,40.71837452890331],[-73.93725889616749,40.718791834641515],[-73.93867330648071,40.7184851835958],[-73.94023927018455,40.718118209205784],[-73.94034050921692,40.7178602542257],[-73.94041944547108,40.71833788342197],[-73.94043381637137,40.71840376510663],[-73.94049129045375,40.71867827085733],[-73.94059182964517,40.71920531672701],[-73.94153707400102,40.71911247875729],[-73.94247510076258,40.71901962942105],[-73.94342755015252,40.71893226905038],[-73.94508711564148,40.71877936599849],[-73.94531801157606,40.718757517815234],[-73.94632099774697,40.718620751817625],[-73.94663845852824,40.71861540987514],[-73.94675390159055,40.71860997380373],[-73.94676827442659,40.71868134421333],[-73.94678980525111,40.718824081690634],[-73.9472156953893,40.718560780769124],[-73.94841345142142,40.71845702279711],[-73.95006578286385,40.71829855521801],[-73.95018069166458,40.71900675309411],[-73.9504967921433,40.72083489932682],[-73.95064766411721,40.72170779748587],[-73.95164929383293,40.72348682603103],[-73.9547538955815,40.72060060172796],[-73.95603766413676,40.7213970792153],[-73.95544564920687,40.72194580341259],[-73.95533012380828,40.72206652803366],[-73.95520739006584,40.72217627069821],[-73.95507744430437,40.72228052089953],[-73.95493307490915,40.72237378627358],[-73.9547742781658,40.722461556282326],[-73.95627445898184,40.72338986411303],[-73.95568242464864,40.72394407889463]],[[-73.95568242464864,40.72394407889463],[-73.9545140053554,40.72322449659771],[-73.95514100389941,40.724328135338375],[-73.95527091670996,40.72427878023792],[-73.9553936248255,40.72421295365223],[-73.95550912817643,40.724130655603894],[-73.95560298838147,40.724042859579484],[-73.95568242464864,40.72394407889463]]]]},"properties":{"modzcta":"11222","label":"11222","zcta":"11222","pop_est":"36492"}}], "crs" : { "type": "name", "properties": { "name": "urn:ogc:def:crs:OGC:1.3:CRS84" } } }